NORAD_CAT_ID,OBJECT_NAME,OBJECT_TYPE,EPOCH,MEAN_MOTION,ECCENTRICITY,INCLINATION,RA_OF_ASC_NODE,ARG_OF_PERICENTER,MEAN_ANOMALY,BSTAR,MEAN_MOTION_DOT,MEAN_MOTION_DDOT,TLE_LINE0,TLE_LINE1,TLE_LINE2,SEMIMAJOR_AXIS,PERIOD,APOGEE,PERIGEE,DECAYED
52670.0,STARLINK-4075,PAYLOAD,2023-02-15 14:19:02,15.08866979,0.0001023,53.2157,133.4339,97.4453,262.6655,0.00015753,2.222e-05,0.0,0 STARLINK-4075,1 52670U 22053Q   23046.59655453  .00002222  00000-0  15753-3 0  9991,2 52670  53.2157 133.4339 0001023  97.4453 262.6655 15.08866979 41814,6917.798,95.436,540.371,538.955,0.0
52670.0,STARLINK-4075,PAYLOAD,2023-02-16 12:34:27,15.08844752,8.17e-05,53.2163,129.2745,98.0222,262.0863,8.7862e-05,1.111e-05,0.0,0 STARLINK-4075,1 52670U 22053Q   23047.52392897  .00001111  00000-0  87862-4 0  9992,2 52670  53.2163 129.2745 0000817  98.0222 262.0863 15.08844752 41951,6917.866,95.437,540.296,539.166,0.0
52670.0,STARLINK-4075,PAYLOAD,2023-02-16 15:45:13,15.08850324,6.89e-05,53.2164,128.6778,85.2742,274.8328,0.00011184,1.493e-05,0.0,0 STARLINK-4075,1 52670U 22053Q   23047.65640397  .00001493  00000-0  11184-3 0  9993,2 52670  53.2164 128.6778 0000689  85.2742 274.8328 15.08850324 42414,6917.849,95.437,540.19,539.237,0.0
52670.0,STARLINK-4075,PAYLOAD,2023-02-17 06:03:43,15.08839734,0.0001435,53.2165,126.0016,104.2242,255.891,-0.00015916,-2.82e-05,0.0,0 STARLINK-4075,1 52670U 22053Q   23048.25258117 -.00002820  00000-0 -15916-3 0  9999,2 52670  53.2165 126.0016 0001435 104.2242 255.8910 15.08839734 42068,6917.881,95.438,540.739,538.753,0.0
52670.0,STARLINK-4075,PAYLOAD,2023-02-17 09:14:28,15.08844461,0.0001516,53.2164,125.4065,113.0798,247.0354,-0.00012424,-2.265e-05,0.0,0 STARLINK-4075,1 52670U 22053Q   23048.38505629 -.00002265  00000-0 -12424-3 0  9990,2 52670  53.2164 125.4065 0001516 113.0798 247.0354 15.08844461 42527,6917.867,95.437,540.781,538.683,0.0
52670.0,STARLINK-4075,PAYLOAD,2023-02-18 13:51:26,15.08829048,0.0001364,53.2151,120.0533,111.8848,248.2289,-2.4697e-05,-6.81e-06,0.0,0 STARLINK-4075,1 52670U 22053Q   23049.57739060 -.00000681  00000-0 -24697-4 0  9996,2 52670  53.2151 120.0533 0001364 111.8848 248.2289 15.08829048 42701,6917.914,95.438,540.722,538.835,0.0
52670.0,STARLINK-4075,PAYLOAD,2023-02-18 21:48:21,15.08838283,0.0001134,53.2162,118.5675,95.7088,264.4034,-2.3326e-05,-6.59e-06,0.0,0 STARLINK-4075,1 52670U 22053Q   23049.90858633 -.00000659  00000-0 -23326-4 0  9994,2 52670  53.2162 118.5675 0001134  95.7088 264.4034 15.08838283 42319,6917.886,95.438,540.535,538.966,0.0
52670.0,STARLINK-4075,PAYLOAD,2023-02-19 08:56:03,15.08847505,0.0001409,53.2161,116.4863,98.0555,262.0597,9.8946e-05,1.287e-05,0.0,0 STARLINK-4075,1 52670U 22053Q   23050.37226072  .00001287  00000-0  98946-4 0  9999,2 52670  53.2161 116.4863 0001409  98.0555 262.0597 15.08847505 42386,6917.857,95.437,540.697,538.748,0.0
52670.0,STARLINK-4075,PAYLOAD,2023-02-19 13:42:12,15.08854615,0.0001246,53.2155,115.5915,103.3664,256.7467,0.00014458,2.015e-05,0.0,0 STARLINK-4075,1 52670U 22053Q   23050.57097354  .00002015  00000-0  14458-3 0  9995,2 52670  53.2155 115.5915 0001246 103.3664 256.7467 15.08854615 42855,6917.836,95.437,540.563,538.839,0.0
52670.0,STARLINK-4075,PAYLOAD,2023-02-20 04:00:41,15.08842965,0.0001199,53.2154,112.9162,101.6792,258.4335,0.00015035,2.106e-05,0.0,0 STARLINK-4075,1 52670U 22053Q   23051.16714238  .00002106  00000-0  15035-3 0  9991,2 52670  53.2154 112.9162 0001199 101.6792 258.4335 15.08842965 42509,6917.871,95.437,540.566,538.907,0.0
52670.0,STARLINK-4075,PAYLOAD,2023-02-20 10:22:13,15.08847465,0.0001228,53.2152,111.7273,98.2888,261.8243,0.00017679,2.527e-05,0.0,0 STARLINK-4075,1 52670U 22053Q   23051.43209881  .00002527  00000-0  17679-3 0  9997,2 52670  53.2152 111.7273 0001228  98.2888 261.8243 15.08847465 42985,6917.858,95.437,540.572,538.873,0.0
52670.0,STARLINK-4075,PAYLOAD,2023-02-21 10:13:00,15.08848017,0.0001321,53.2151,107.2663,100.0822,260.0319,1.7555e-05,-8e-08,0.0,0 STARLINK-4075,1 52670U 22053Q   23052.42569733 -.00000008  00000-0  17555-4 0  9999,2 52670  53.2151 107.2663 0001321 100.0822 260.0319 15.08848017 42698,6917.856,95.437,540.635,538.807,0.0
52670.0,STARLINK-4075,PAYLOAD,2023-02-22 03:42:14,15.08842245,0.0001348,53.215,103.9954,97.5461,262.5685,-1.1256e-05,-4.67e-06,0.0,0 STARLINK-4075,1 52670U 22053Q   23053.15433927 -.00000467  00000-0 -11256-4 0  9997,2 52670  53.2150 103.9954 0001348  97.5461 262.5685 15.08842245 42804,6917.874,95.437,540.671,538.806,0.0
52670.0,STARLINK-4075,PAYLOAD,2023-02-22 10:03:47,15.08846432,0.0001437,53.2163,102.8061,96.8506,263.265,-1.9855e-05,-6.04e-06,0.0,0 STARLINK-4075,1 52670U 22053Q   23053.41929611 -.00000604  00000-0 -19855-4 0  9992,2 52670  53.2163 102.8061 0001437  96.8506 263.2650 15.08846432 43281,6917.861,95.437,540.72,538.732,0.0
52670.0,STARLINK-4075,PAYLOAD,2023-02-22 19:36:06,15.08836034,0.0001494,53.2159,101.0214,91.0702,269.0462,-2.8349e-05,-7.39e-06,0.0,0 STARLINK-4075,1 52670U 22053Q   23053.81674349 -.00000739  00000-0 -28349-4 0  9998,2 52670  53.2159 101.0214 0001494  91.0702 269.0462 15.08836034 43344,6917.893,95.438,540.791,538.724,0.0
52670.0,STARLINK-4075,PAYLOAD,2023-02-23 03:33:02,15.08831472,0.0001462,53.2162,99.5366,103.5019,256.6136,-3.384e-05,-8.26e-06,0.0,0 STARLINK-4075,1 52670U 22053Q   23054.14794718 -.00000826  00000-0 -33840-4 0  9997,2 52670  53.2162  99.5366 0001462 103.5019 256.6136 15.08831472 42959,6917.906,95.438,540.783,538.76,0.0
52670.0,STARLINK-4075,PAYLOAD,2023-02-23 09:54:35,15.08832536,0.0001409,53.2162,98.3477,102.6768,257.4382,-3.5644e-05,-8.55e-06,0.0,0 STARLINK-4075,1 52670U 22053Q   23054.41290742 -.00000855  00000-0 -35644-4 0  9991,2 52670  53.2162  98.3477 0001409 102.6768 257.4382 15.08832536 43439,6917.903,95.438,540.743,538.793,0.0
52670.0,STARLINK-4075,PAYLOAD,2023-02-23 19:26:53,15.08838062,0.0001457,53.2171,96.563,104.5199,255.5955,-5.3144e-05,-1.134e-05,0.0,0 STARLINK-4075,1 52670U 22053Q   23054.81034522 -.00001134  00000-0 -53144-4 0  9993,2 52670  53.2171  96.5630 0001457 104.5199 255.5955 15.08838062 43493,6917.886,95.438,540.759,538.743,0.0
52670.0,STARLINK-4075,PAYLOAD,2023-02-24 03:23:49,15.08838717,0.0001283,53.2168,95.0755,99.4842,260.6295,9.0328e-05,1.15e-05,0.0,0 STARLINK-4075,1 52670U 22053Q   23055.14154283  .00001150  00000-0  90328-4 0  9998,2 52670  53.2168  95.0755 0001283  99.4842 260.6295 15.08838717 43104,6917.884,95.438,540.637,538.862,0.0
52670.0,STARLINK-4075,PAYLOAD,2023-02-24 12:56:07,15.08846954,0.0001319,53.2169,93.2906,102.389,257.725,0.00015167,2.127e-05,0.0,0 STARLINK-4075,1 52670U 22053Q   23055.53897568  .00002127  00000-0  15167-3 0  9993,2 52670  53.2169  93.2906 0001319 102.3890 257.7250 15.08846954 43166,6917.859,95.437,540.637,538.812,0.0
52670.0,STARLINK-4075,PAYLOAD,2023-02-24 19:17:41,15.08833279,0.0001915,53.2164,92.0997,89.1848,270.9363,7.2749e-05,8.7e-06,0.0,0 STARLINK-4075,1 52670U 22053Q   23055.80394924  .00000870  00000-0  72749-4 0  9994,2 52670  53.2164  92.0997 0001915  89.1848 270.9363 15.08833279 43208,6917.901,95.438,541.091,538.441,0.0
52670.0,STARLINK-4075,PAYLOAD,2023-02-25 03:14:37,15.08823004,0.0001414,53.2184,90.6153,97.5253,262.5899,2.2159e-05,6.5e-07,0.0,0 STARLINK-4075,1 52670U 22053Q   23056.13515814  .00000065  00000-0  22159-4 0  9990,2 52670  53.2184  90.6153 0001414  97.5253 262.5899 15.08823004 43256,6917.932,95.439,540.776,538.819,0.0
52670.0,STARLINK-4075,PAYLOAD,2023-02-25 09:36:10,15.08827474,0.0001342,53.2181,89.4256,95.7334,264.3811,1.795e-05,-2e-08,0.0,0 STARLINK-4075,1 52670U 22053Q   23056.40011821 -.00000002  00000-0  17950-4 0  9994,2 52670  53.2181  89.4256 0001342  95.7334 264.3811 15.08827474 43735,6917.919,95.438,540.712,538.855,0.0
52670.0,STARLINK-4075,PAYLOAD,2023-02-25 19:08:28,15.08836177,0.0001306,53.2167,87.6397,91.9104,268.2037,7.8325e-05,9.59e-06,0.0,0 STARLINK-4075,1 52670U 22053Q   23056.79755287  .00000959  00000-0  78325-4 0  9990,2 52670  53.2167  87.6397 0001306  91.9104 268.2037 15.08836177 43359,6917.892,95.438,540.661,538.854,0.0
52670.0,STARLINK-4075,PAYLOAD,2023-02-26 03:05:23,15.0884655,0.0001226,53.2173,86.154,97.1954,262.9178,0.00010508,1.385e-05,0.0,0 STARLINK-4075,1 52670U 22053Q   23057.12874595  .00001385  00000-0  10508-3 0  9994,2 52670  53.2173  86.1540 0001226  97.1954 262.9178 15.08846550 43401,6917.86,95.437,540.573,538.877,0.0
52670.0,STARLINK-4075,PAYLOAD,2023-02-26 11:02:18,15.08859032,0.000126,53.2153,84.665,87.7708,272.3428,0.000295,4.413e-05,0.0,0 STARLINK-4075,1 52670U 22053Q   23057.45993931  .00004413  00000-0  29500-3 0  9993,2 52670  53.2153  84.6650 0001260  87.7708 272.3428 15.08859032 43451,6917.822,95.436,540.559,538.816,0.0
52670.0,STARLINK-4075,PAYLOAD,2023-02-26 18:59:15,15.08841057,0.0001348,53.2162,83.1789,76.7333,283.381,0.00013242,1.82e-05,0.0,0 STARLINK-4075,1 52670U 22053Q   23057.79114890  .00001820  00000-0  13242-3 0  9994,2 52670  53.2162  83.1789 0001348  76.7333 283.3810 15.08841057 43508,6917.877,95.437,540.675,538.81,0.0
52670.0,STARLINK-4075,PAYLOAD,2023-02-27 04:31:34,15.08837175,0.0001524,53.2162,81.3957,79.5241,280.5923,0.00022677,3.323e-05,0.0,0 STARLINK-4075,1 52670U 22053Q   23058.18859505  .00003323  00000-0  22677-3 0  9999,2 52670  53.2162  81.3957 0001524  79.5241 280.5923 15.08837175 43566,6917.889,95.438,540.808,538.7,0.0
52670.0,STARLINK-4075,PAYLOAD,2023-02-27 18:50:01,15.08862497,0.0001286,53.2156,78.718,78.1032,282.0105,0.00066988,0.00010396,0.0,0 STARLINK-4075,1 52670U 22053Q   23058.78474432  .00010396  00000-0  66988-3 0  9998,2 52670  53.2156  78.7180 0001286  78.1032 282.0105 15.08862497 43659,6917.812,95.436,540.566,538.787,0.0
52670.0,STARLINK-4075,PAYLOAD,2023-02-28 12:19:15,15.08892172,0.0001531,53.2153,75.4477,72.7798,287.3361,0.0014012,0.00022114,0.0,0 STARLINK-4075,1 52670U 22053Q   23059.51337104  .00022114  00000-0  14012-2 0  9995,2 52670  53.2153  75.4477 0001531  72.7798 287.3361 15.08892172 44208,6917.721,95.434,540.645,538.527,0.0
